start=new Date('2023-01-24T00:00:00.000Z').valueOf();
sats=[{"NORAD_CAT_ID":"53781","FILE":"3759167","CLASSIFICATION_TYPE":"U","BSTAR":"-0.00012441000000","MEAN_MOTION_DDOT":"0.0000000000000","REF_FRAME":"TEME","TIME_SYSTEM":"UTC","PERIOD":"95.438","GP_ID":"223621032","COUNTRY_CODE":"US","REV_AT_EPOCH":"2062","TLE_LINE2":"2 53781  53.2180 356.5658 0001527  83.9391 276.1775 15.08838749 20629","APOAPSIS":"540.806","OBJECT_TYPE":"PAYLOAD","OBJECT_NAME":"STARLINK-4462","TLE_LINE1":"1 53781U 22111J   23023.62136109 -.00002267  00000-0 -12441-3 0  9993","ELEMENT_SET_NO":"999","SEMIMAJOR_AXIS":"6917.884","EPHEMERIS_TYPE":"0","MEAN_MOTION_DOT":"-0.00002267","MEAN_ELEMENT_THEORY":"SGP4","INCLINATION":"53.2180","MEAN_MOTION":"15.08838749","OBJECT_ID":"2022-111J","RA_OF_ASC_NODE":"356.5658","MEAN_ANOMALY":"276.1775","CENTER_NAME":"EARTH","LAUNCH_DATE":"2022-09-11","PERIAPSIS":"538.693","ECCENTRICITY":"0.00015270","EPOCH":"2023-01-23T14:54:45.598176","ARG_OF_PERICENTER":"83.9391","SITE":"AFETR","DECAY_DATE":null,"RCS_SIZE":"LARGE"},{"MEAN_MOTION_DDOT":"0.0000000000000","CLASSIFICATION_TYPE":"U","BSTAR":"-0.00005046200000","FILE":"3759167","NORAD_CAT_ID":"53782","GP_ID":"223621037","PERIOD":"95.437","REF_FRAME":"TEME","TIME_SYSTEM":"UTC","APOAPSIS":"540.646","OBJECT_TYPE":"PAYLOAD","TLE_LINE2":"2 53782  53.2199 356.6192 0001324  93.0566 267.0577 15.08844900 20620","COUNTRY_CODE":"US","REV_AT_EPOCH":"2062","OBJECT_NAME":"STARLINK-4679","MEAN_ELEMENT_THEORY":"SGP4","EPHEMERIS_TYPE":"0","SEMIMAJOR_AXIS":"6917.865","ELEMENT_SET_NO":"999","MEAN_MOTION_DOT":"-0.00001091","TLE_LINE1":"1 53782U 22111K   23023.62872284 -.00001091  00000-0 -50462-4 0  9995","MEAN_ANOMALY":"267.0577","OBJECT_ID":"2022-111K","RA_OF_ASC_NODE":"356.6192","INCLINATION":"53.2199","MEAN_MOTION":"15.08844900","ECCENTRICITY":"0.00013240","CENTER_NAME":"EARTH","PERIAPSIS":"538.814","LAUNCH_DATE":"2022-09-11","DECAY_DATE":null,"SITE":"AFETR","RCS_SIZE":"LARGE","ARG_OF_PERICENTER":"93.0566","EPOCH":"2023-01-23T15:05:21.653376"},{"RA_OF_ASC_NODE":"356.5176","OBJECT_ID":"2022-111L","MEAN_MOTION":"15.08834570","INCLINATION":"53.2196","MEAN_ANOMALY":"293.2399","MEAN_MOTION_DOT":"0.00008278","SEMIMAJOR_AXIS":"6917.897","EPHEMERIS_TYPE":"0","ELEMENT_SET_NO":"999","TLE_LINE1":"1 53783U 22111L   23023.61399040  .00008278  00000-0  53764-3 0  9998","MEAN_ELEMENT_THEORY":"SGP4","ARG_OF_PERICENTER":"66.8768","EPOCH":"2023-01-23T14:44:08.770560","DECAY_DATE":null,"SITE":"AFETR","RCS_SIZE":"LARGE","ECCENTRICITY":"0.00016630","LAUNCH_DATE":"2022-09-11","PERIAPSIS":"538.612","CENTER_NAME":"EARTH","TIME_SYSTEM":"UTC","REF_FRAME":"TEME","GP_ID":"223621320","PERIOD":"95.438","BSTAR":"0.00053764000000","CLASSIFICATION_TYPE":"U","NORAD_CAT_ID":"53783","FILE":"3759165","MEAN_MOTION_DDOT":"0.0000000000000","OBJECT_NAME":"STARLINK-4536","REV_AT_EPOCH":"2062","COUNTRY_CODE":"US","OBJECT_TYPE":"PAYLOAD","APOAPSIS":"540.912","TLE_LINE2":"2 53783  53.2196 356.5176 0001663  66.8768 293.2399 15.08834570 20622"},{"BSTAR":"0.00067380000000","CLASSIFICATION_TYPE":"U","NORAD_CAT_ID":"53784","FILE":"3759071","MEAN_MOTION_DDOT":"0.0000000000000","REF_FRAME":"TEME","TIME_SYSTEM":"UTC","GP_ID":"223619040","PERIOD":"95.438","REV_AT_EPOCH":"2062","COUNTRY_CODE":"US","OBJECT_TYPE":"PAYLOAD","APOAPSIS":"540.810","TLE_LINE2":"2 53784  53.2191 356.5986 0001531  89.5047 270.6120 15.08838285 20621","OBJECT_NAME":"STARLINK-4687","MEAN_MOTION_DOT":"0.00010451","SEMIMAJOR_AXIS":"6917.886","EPHEMERIS_TYPE":"0","ELEMENT_SET_NO":"999","TLE_LINE1":"1 53784U 22111M   23023.62504492  .00010451  00000-0  67380-3 0  9994","MEAN_ELEMENT_THEORY":"SGP4","RA_OF_ASC_NODE":"356.5986","OBJECT_ID":"2022-111M","MEAN_MOTION":"15.08838285","INCLINATION":"53.2191","MEAN_ANOMALY":"270.6120","ECCENTRICITY":"0.00015310","PERIAPSIS":"538.692","LAUNCH_DATE":"2022-09-11","CENTER_NAME":"EARTH","ARG_OF_PERICENTER":"89.5047","EPOCH":"2023-01-23T15:00:03.881088","DECAY_DATE":null,"RCS_SIZE":"LARGE","SITE":"AFETR"},{"REV_AT_EPOCH":"2071","COUNTRY_CODE":"US","OBJECT_TYPE":"PAYLOAD","APOAPSIS":"541.142","TLE_LINE2":"2 53786  53.2185 347.9695 0002025  75.1798 284.9419 15.08841502 20715","OBJECT_NAME":"STARLINK-4631","BSTAR":"0.00002714900000","CLASSIFICATION_TYPE":"U","FILE":"3758570","NORAD_CAT_ID":"53786","MEAN_MOTION_DDOT":"0.0000000000000","REF_FRAME":"TEME","TIME_SYSTEM":"UTC","GP_ID":"223608174","PERIOD":"95.437","ECCENTRICITY":"0.00020250","LAUNCH_DATE":"2022-09-11","PERIAPSIS":"538.340","CENTER_NAME":"EARTH","ARG_OF_PERICENTER":"75.1798","EPOCH":"2023-01-23T06:07:29.322336","SITE":"AFETR","DECAY_DATE":null,"RCS_SIZE":"LARGE","MEAN_MOTION_DOT":"0.00000144","EPHEMERIS_TYPE":"0","SEMIMAJOR_AXIS":"6917.876","ELEMENT_SET_NO":"999","TLE_LINE1":"1 53786U 22111P   23023.25520049  .00000144  00000-0  27149-4 0  9999","MEAN_ELEMENT_THEORY":"SGP4","RA_OF_ASC_NODE":"347.9695","OBJECT_ID":"2022-111P","MEAN_MOTION":"15.08841502","INCLINATION":"53.2185","MEAN_ANOMALY":"284.9419"},{"OBJECT_NAME":"STARLINK-4743","APOAPSIS":"540.660","OBJECT_TYPE":"PAYLOAD","TLE_LINE2":"2 53787  53.2188 357.9602 0001320 105.5105 254.6033 15.08839670 20578","REV_AT_EPOCH":"2057","COUNTRY_CODE":"US","GP_ID":"223607901","PERIOD":"95.438","TIME_SYSTEM":"UTC","REF_FRAME":"TEME","MEAN_MOTION_DDOT":"0.0000000000000","CLASSIFICATION_TYPE":"U","BSTAR":"0.00127260000000","NORAD_CAT_ID":"53787","FILE":"3758570","SITE":"AFETR","DECAY_DATE":null,"RCS_SIZE":"LARGE","ARG_OF_PERICENTER":"105.5105","EPOCH":"2023-01-23T06:36:36.109152","ECCENTRICITY":"0.00013200","CENTER_NAME":"EARTH","LAUNCH_DATE":"2022-09-11","PERIAPSIS":"538.833","MEAN_ANOMALY":"254.6033","RA_OF_ASC_NODE":"357.9602","OBJECT_ID":"2022-111Q","INCLINATION":"53.2188","MEAN_MOTION":"15.08839670","MEAN_ELEMENT_THEORY":"SGP4","EPHEMERIS_TYPE":"0","SEMIMAJOR_AXIS":"6917.881","ELEMENT_SET_NO":"999","MEAN_MOTION_DOT":"0.00020023","TLE_LINE1":"1 53787U 22111Q   23023.27541793  .00020023  00000-0  12726-2 0  9992"},{"MEAN_ELEMENT_THEORY":"SGP4","TLE_LINE1":"1 53789U 22111S   23023.20276335  .00011304  00000-0  72689-3 0  9991","MEAN_MOTION_DOT":"0.00011304","SEMIMAJOR_AXIS":"6917.836","EPHEMERIS_TYPE":"0","ELEMENT_SET_NO":"999","MEAN_ANOMALY":"273.8126","MEAN_MOTION":"15.08854565","INCLINATION":"53.2189","OBJECT_ID":"2022-111S","RA_OF_ASC_NODE":"358.2237","PERIAPSIS":"538.771","LAUNCH_DATE":"2022-09-11","CENTER_NAME":"EARTH","ECCENTRICITY":"0.00013440","DECAY_DATE":null,"SITE":"AFETR","RCS_SIZE":"LARGE","EPOCH":"2023-01-23T04:51:58.753440","ARG_OF_PERICENTER":"86.3020","MEAN_MOTION_DDOT":"0.0000000000000","NORAD_CAT_ID":"53789","FILE":"3758452","BSTAR":"0.00072689000000","CLASSIFICATION_TYPE":"U","PERIOD":"95.437","GP_ID":"223605180","REF_FRAME":"TEME","TIME_SYSTEM":"UTC","TLE_LINE2":"2 53789  53.2189 358.2237 0001344  86.3020 273.8126 15.08854565 20562","OBJECT_TYPE":"PAYLOAD","APOAPSIS":"540.631","COUNTRY_CODE":"US","REV_AT_EPOCH":"2056","OBJECT_NAME":"STARLINK-4666"},{"DECAY_DATE":null,"RCS_SIZE":"LARGE","SITE":"AFETR","EPOCH":"2023-01-23T14:38:50.646624","ARG_OF_PERICENTER":"93.4282","LAUNCH_DATE":"2022-09-11","PERIAPSIS":"538.545","CENTER_NAME":"EARTH","ECCENTRICITY":"0.00017540","MEAN_ANOMALY":"266.6910","MEAN_MOTION":"15.08835893","INCLINATION":"53.2186","OBJECT_ID":"2022-111T","RA_OF_ASC_NODE":"356.4996","MEAN_ELEMENT_THEORY":"SGP4","TLE_LINE1":"1 53790U 22111T   23023.61030841 -.00002487  00000-0 -13821-3 0  9995","MEAN_MOTION_DOT":"-0.00002487","SEMIMAJOR_AXIS":"6917.893","EPHEMERIS_TYPE":"0","ELEMENT_SET_NO":"999","OBJECT_NAME":"STARLINK-4734","TLE_LINE2":"2 53790  53.2186 356.4996 0001754  93.4282 266.6910 15.08835893 20628","OBJECT_TYPE":"PAYLOAD","APOAPSIS":"540.971","COUNTRY_CODE":"US","REV_AT_EPOCH":"2062","PERIOD":"95.438","GP_ID":"223621048","TIME_SYSTEM":"UTC","REF_FRAME":"TEME","MEAN_MOTION_DDOT":"0.0000000000000","FILE":"3759165","NORAD_CAT_ID":"53790","BSTAR":"-0.00013821000000","CLASSIFICATION_TYPE":"U"},{"INCLINATION":"53.2194","MEAN_MOTION":"15.08833527","OBJECT_ID":"2022-111V","RA_OF_ASC_NODE":"358.2367","MEAN_ANOMALY":"275.1931","TLE_LINE1":"1 53792U 22111V   23023.20549779 -.00001331  00000-0 -65540-4 0  9990","EPHEMERIS_TYPE":"0","SEMIMAJOR_AXIS":"6917.900","ELEMENT_SET_NO":"999","MEAN_MOTION_DOT":"-0.00001331","MEAN_ELEMENT_THEORY":"SGP4","EPOCH":"2023-01-23T04:55:55.009056","ARG_OF_PERICENTER":"84.9281","RCS_SIZE":"LARGE","DECAY_DATE":null,"SITE":"AFETR","CENTER_NAME":"EARTH","PERIAPSIS":"538.434","LAUNCH_DATE":"2022-09-11","ECCENTRICITY":"0.00019240","TIME_SYSTEM":"UTC","REF_FRAME":"TEME","PERIOD":"95.438","GP_ID":"223607920","NORAD_CAT_ID":"53792","FILE":"3758571","CLASSIFICATION_TYPE":"U","BSTAR":"-0.00006554000000","MEAN_MOTION_DDOT":"0.0000000000000","OBJECT_NAME":"STARLINK-4739","REV_AT_EPOCH":"2056","COUNTRY_CODE":"US","TLE_LINE2":"2 53792  53.2194 358.2367 0001924  84.9281 275.1931 15.08833527 20567","APOAPSIS":"541.096","OBJECT_TYPE":"PAYLOAD"},{"MEAN_ANOMALY":"266.0936","INCLINATION":"53.2189","MEAN_MOTION":"15.08834417","RA_OF_ASC_NODE":"357.5936","OBJECT_ID":"2022-111W","MEAN_ELEMENT_THEORY":"SGP4","TLE_LINE1":"1 53793U 22111W   23023.33060766 -.00001036  00000-0 -46981-4 0  9999","SEMIMAJOR_AXIS":"6917.897","ELEMENT_SET_NO":"999","EPHEMERIS_TYPE":"0","MEAN_MOTION_DOT":"-0.00001036","DECAY_DATE":null,"SITE":"AFETR","RCS_SIZE":"LARGE","EPOCH":"2023-01-23T07:56:04.501824","ARG_OF_PERICENTER":"94.0246","CENTER_NAME":"EARTH","PERIAPSIS":"538.614","LAUNCH_DATE":"2022-09-11","ECCENTRICITY":"0.00016600","PERIOD":"95.438","GP_ID":"223621340","TIME_SYSTEM":"UTC","REF_FRAME":"TEME","MEAN_MOTION_DDOT":"0.0000000000000","NORAD_CAT_ID":"53793","FILE":"3759168","CLASSIFICATION_TYPE":"U","BSTAR":"-0.00004698100000","OBJECT_NAME":"STARLINK-4728","TLE_LINE2":"2 53793  53.2189 357.5936 0001660  94.0246 266.0936 15.08834417 20581","APOAPSIS":"540.911","OBJECT_TYPE":"PAYLOAD","REV_AT_EPOCH":"2058","COUNTRY_CODE":"US"}];
